STARLINK-31545          
1 59400U 24064C   26068.00510506 -.00000982  00000+0 -26185-4 0  9999
2 59400  43.0054  59.8202 0000976 270.9816  89.0923 15.27573669109122
KUIPER-00204            
1 67145U 25301N   26068.39760395  .00020516  00000+0  79568-3 0  9999
2 67145  51.8870  71.6415 0003071 354.8934   5.2016 15.26088400 13737
